KUIPER-00044            
1 64505U 25134F   25273.63682625  .00006573  00000+0  88847-3 0  9990
2 64505  51.8983 234.3481 0014112 101.5083 258.7465 14.79975994 16185
KUIPER-00046            
1 64506U 25134G   25273.22682821  .00010877  00000+0  14724-2 0  9998
2 64506  51.8975 232.5397 0012689 111.9484 248.2828 14.79341653 16175
KUIPER-00047            
1 64507U 25134H   25273.66672454 -.01173308  00000+0 -40834-1 0  9990
2 64507  51.8648 213.1009 0011601 122.4254  80.5291 15.32121154  5635
KUIPER-00048            
1 64508U 25134J   25273.66672454 -.00421370  00000+0 -13877-1 0  9992
2 64508  51.8779 211.7724 0003740 116.0250  99.7505 15.32711930  4163
KUIPER-00049            
1 64509U 25134K   25273.66672454  .00013113  00000+0  11957-2 0  9991
2 64509  51.8959 217.3038 0006418  89.3711 327.6809 14.95372445  3850
KUIPER-00050            
1 64510U 25134L   25273.66672454 -.00867221  00000+0 -82781-1 0  9994
2 64510  51.9111 218.4738 0006266 129.4143  68.9106 14.95838723  5525
KUIPER-00051            
1 64511U 25134M   25273.66672454 -.01093798  00000+0 -82607-1 0  9993
2 64511  51.8897 215.8141 0005407 102.9029 233.2646 15.04932458  5505
KUIPER-00052            
1 64512U 25134N   25273.51780611  .00266221  00000+0  32386-2 0  9993
2 64512  51.8727 203.8266 0007671 123.1185 237.0549 15.59087951 16590
